NORAD_CAT_ID,OBJECT_NAME,OBJECT_TYPE,EPOCH,MEAN_MOTION,ECCENTRICITY,INCLINATION,RA_OF_ASC_NODE,ARG_OF_PERICENTER,MEAN_ANOMALY,BSTAR,MEAN_MOTION_DOT,MEAN_MOTION_DDOT,TLE_LINE0,TLE_LINE1,TLE_LINE2,SEMIMAJOR_AXIS,PERIOD,APOGEE,PERIGEE,DECAYED
51127.0,STARLINK-3370,PAYLOAD,2023-02-10 23:37:07,15.08850254,0.0001044,53.215,299.1466,59.1948,300.9147,0.0016014,0.00025297,0.0,0 STARLINK-3370,1 51127U 22005Z   23041.98410974  .00025297  00000-0  16014-2 0  9996,2 51127  53.2150 299.1466 0001044  59.1948 300.9147 15.08850254 60363,6917.849,95.437,540.436,538.992,0.0
51127.0,STARLINK-3370,PAYLOAD,2023-02-11 17:06:21,15.08849588,9.36e-05,53.2136,295.873,98.4125,261.6974,0.00071701,0.00011145,0.0,0 STARLINK-3370,1 51127U 22005Z   23042.71275075  .00011145  00000-0  71701-3 0  9991,2 51127  53.2136 295.8730 0000936  98.4125 261.6974 15.08849588 60477,6917.851,95.437,540.364,539.069,0.0
51127.0,STARLINK-3370,PAYLOAD,2023-02-12 07:24:49,15.08848807,0.0001104,53.2129,293.198,89.3856,270.7263,0.00050224,7.716e-05,0.0,0 STARLINK-3370,1 51127U 22005Z   23043.30890932  .00007716  00000-0  50224-3 0  9998,2 51127  53.2129 293.1980 0001104  89.3856 270.7263 15.08848807 60560,6917.853,95.437,540.482,538.955,0.0
51127.0,STARLINK-3370,PAYLOAD,2023-02-12 16:57:09,15.08817893,7.76e-05,53.2154,291.4149,73.1574,286.9504,-0.00027508,-4.66e-05,0.0,0 STARLINK-3370,1 51127U 22005Z   23043.70635919 -.00004660  00000-0 -27508-3 0  9990,2 51127  53.2154 291.4149 0000776  73.1574 286.9504 15.08817893 60623,6917.948,95.439,540.35,539.276,0.0
51127.0,STARLINK-3370,PAYLOAD,2023-02-13 02:29:28,15.0883098,0.0001998,53.2146,289.6298,58.3427,301.7759,0.00054192,8.345e-05,0.0,0 STARLINK-3370,1 51127U 22005Z   23044.10380432  .00008345  00000-0  54192-3 0  9993,2 51127  53.2146 289.6298 0001998  58.3427 301.7759 15.08830980 60683,6917.908,95.438,541.155,538.391,0.0
51127.0,STARLINK-3370,PAYLOAD,2023-02-13 08:51:01,15.0883115,0.0002144,53.2146,288.4398,62.0911,298.0298,0.00052564,8.085e-05,0.0,0 STARLINK-3370,1 51127U 22005Z   23044.36876697  .00008085  00000-0  52564-3 0  9996,2 51127  53.2146 288.4398 0002144  62.0911 298.0298 15.08831150 59601,6917.907,95.438,541.256,538.289,0.0
51127.0,STARLINK-3370,PAYLOAD,2023-02-14 08:41:47,15.08853502,3.29e-05,53.2148,283.9797,13.0964,347.0037,0.00078447,0.00012224,0.0,0 STARLINK-3370,1 51127U 22005Z   23045.36235824  .00012224  00000-0  78447-3 0  9996,2 51127  53.2148 283.9797 0000329  13.0964 347.0037 15.08853502 60875,6917.839,95.437,539.932,539.477,0.0
51127.0,STARLINK-3370,PAYLOAD,2023-02-14 23:00:16,15.08838755,0.0001259,53.2152,281.3023,71.4233,288.6895,9.5602e-05,1.234e-05,0.0,0 STARLINK-3370,1 51127U 22005Z   23045.95852339  .00001234  00000-0  95602-4 0  9999,2 51127  53.2152 281.3023 0001259  71.4233 288.6895 15.08838755 60969,6917.884,95.438,540.62,538.878,0.0
51127.0,STARLINK-3370,PAYLOAD,2023-02-15 08:32:35,15.08845746,9.53e-05,53.2141,279.5196,89.3259,270.7843,0.0002527,3.737e-05,0.0,0 STARLINK-3370,1 51127U 22005Z   23046.35596132  .00003737  00000-0  25270-3 0  9993,2 51127  53.2141 279.5196 0000953  89.3259 270.7843 15.08845746 59908,6917.863,95.437,540.387,539.069,0.0
51127.0,STARLINK-3370,PAYLOAD,2023-02-15 21:15:39,15.08856535,0.0001264,53.2156,277.1412,105.9972,254.1159,0.00039983,6.084e-05,0.0,0 STARLINK-3370,1 51127U 22005Z   23046.88587651  .00006084  00000-0  39983-3 0  9991,2 51127  53.2156 277.1412 0001264 105.9972 254.1159 15.08856535 59984,6917.83,95.437,540.569,538.82,0.0
51127.0,STARLINK-3370,PAYLOAD,2023-02-15 22:51:02,15.08860223,0.0001022,53.2143,276.843,85.4587,274.6522,0.00051912,7.988e-05,0.0,0 STARLINK-3370,1 51127U 22005Z   23046.95211590  .00007988  00000-0  51912-3 0  9995,2 51127  53.2143 276.8430 0001022  85.4587 274.6522 15.08860223 61110,6917.819,95.436,540.391,538.977,0.0
51127.0,STARLINK-3370,PAYLOAD,2023-02-16 08:23:21,15.08847195,0.0001385,53.2152,275.0588,69.231,290.8831,0.00021885,3.197e-05,0.0,0 STARLINK-3370,1 51127U 22005Z   23047.34955964  .00003197  00000-0  21885-3 0  9993,2 51127  53.2152 275.0588 0001385  69.2310 290.8831 15.08847195 61173,6917.858,95.437,540.682,538.765,0.0
51127.0,STARLINK-3370,PAYLOAD,2023-02-16 17:55:41,15.08833968,7.99e-05,53.2142,273.276,70.1076,290.0002,-8.9127e-05,-1.706e-05,0.0,0 STARLINK-3370,1 51127U 22005Z   23047.74700246 -.00001706  00000-0 -89127-4 0  9998,2 51127  53.2142 273.2760 0000799  70.1076 290.0002 15.08833968 60110,6917.899,95.438,540.317,539.211,0.0
51127.0,STARLINK-3370,PAYLOAD,2023-02-16 22:41:50,15.08846505,0.0001465,53.2139,272.3833,55.7951,304.318,0.00027163,4.038e-05,0.0,0 STARLINK-3370,1 51127U 22005Z   23047.94572235  .00004038  00000-0  27163-3 0  9995,2 51127  53.2139 272.3833 0001465  55.7951 304.3180 15.08846505 61263,6917.861,95.437,540.739,538.712,0.0
51127.0,STARLINK-3370,PAYLOAD,2023-02-17 14:35:42,15.08835657,0.0001171,53.2128,269.409,67.3407,292.7709,6.5281e-05,7.51e-06,0.0,0 STARLINK-3370,1 51127U 22005Z   23048.60812610  .00000751  00000-0  65281-4 0  9995,2 51127  53.2128 269.4090 0001171  67.3407 292.7709 15.08835657 61366,6917.894,95.438,540.569,538.949,0.0
51127.0,STARLINK-3370,PAYLOAD,2023-02-17 20:57:14,15.088363,0.0001317,53.213,268.2196,69.3137,290.7996,8.9951e-05,1.144e-05,0.0,0 STARLINK-3370,1 51127U 22005Z   23048.87308570  .00001144  00000-0  89951-4 0  9996,2 51127  53.2130 268.2196 0001317  69.3137 290.7996 15.08836300 60289,6917.892,95.438,540.668,538.846,0.0
51127.0,STARLINK-3370,PAYLOAD,2023-02-18 14:26:29,15.08839743,0.0001362,53.2124,264.9477,76.5565,283.5579,0.00024541,3.62e-05,0.0,0 STARLINK-3370,1 51127U 22005Z   23049.60172809  .00003620  00000-0  24541-3 0  9996,2 51127  53.2124 264.9477 0001362  76.5565 283.5579 15.08839743 60395,6917.881,95.438,540.688,538.804,0.0
51127.0,STARLINK-3370,PAYLOAD,2023-02-18 16:01:52,15.08839392,0.0001182,53.2132,264.651,72.9045,287.2076,0.00025503,3.773e-05,0.0,0 STARLINK-3370,1 51127U 22005Z   23049.66796831  .00003773  00000-0  25503-3 0  9997,2 51127  53.2132 264.6510 0001182  72.9045 287.2076 15.08839392 61521,6917.882,95.438,540.565,538.93,0.0
51127.0,STARLINK-3370,PAYLOAD,2023-02-19 14:17:16,15.0884607,0.0001224,53.2135,260.4884,71.0679,289.0446,0.00015269,2.143e-05,0.0,0 STARLINK-3370,1 51127U 22005Z   23050.59532440  .00002143  00000-0  15269-3 0  9993,2 51127  53.2135 260.4884 0001224  71.0679 289.0446 15.08846070 60545,6917.862,95.437,540.574,538.88,0.0
51127.0,STARLINK-3370,PAYLOAD,2023-02-19 22:14:11,15.08847931,0.0001191,53.2135,259.0002,81.0748,279.0379,0.00017082,2.432e-05,0.0,0 STARLINK-3370,1 51127U 22005Z   23050.92652141  .00002432  00000-0  17082-3 0  9997,2 51127  53.2135 259.0002 0001191  81.0748 279.0379 15.08847931 61713,6917.856,95.437,540.545,538.897,0.0
51127.0,STARLINK-3370,PAYLOAD,2023-02-20 06:11:07,15.08842626,0.0001122,53.2135,257.5137,78.9964,281.1154,7.236e-05,8.64e-06,0.0,0 STARLINK-3370,1 51127U 22005Z   23051.25772354  .00000864  00000-0  72360-4 0  9991,2 51127  53.2135 257.5137 0001122  78.9964 281.1154 15.08842626 61760,6917.872,95.437,540.514,538.961,0.0
51127.0,STARLINK-3370,PAYLOAD,2023-02-20 14:08:02,15.08842755,0.0001135,53.2136,256.0267,80.9737,279.1384,5.347e-05,5.63e-06,0.0,0 STARLINK-3370,1 51127U 22005Z   23051.58892252  .00000563  00000-0  53470-4 0  9994,2 51127  53.2136 256.0267 0001135  80.9737 279.1384 15.08842755 60690,6917.872,95.437,540.522,538.952,0.0
51127.0,STARLINK-3370,PAYLOAD,2023-02-20 22:04:59,15.08838339,0.0001232,53.2154,254.5411,81.8178,278.2954,2.3174e-05,8.1e-07,0.0,0 STARLINK-3370,1 51127U 22005Z   23051.92012826  .00000081  00000-0  23174-4 0  9996,2 51127  53.2154 254.5411 0001232  81.8178 278.2954 15.08838339 61867,6917.885,95.438,540.603,538.898,0.0
51127.0,STARLINK-3370,PAYLOAD,2023-02-21 13:58:50,15.0884076,0.0001208,53.2143,251.5656,95.0105,265.1025,4.8753e-05,4.88e-06,0.0,0 STARLINK-3370,1 51127U 22005Z   23052.58252540  .00000488  00000-0  48753-4 0  9999,2 51127  53.2143 251.5656 0001208  95.0105 265.1025 15.08840760 60845,6917.878,95.438,540.579,538.907,0.0
51127.0,STARLINK-3370,PAYLOAD,2023-02-21 20:20:22,15.08846921,0.0001196,53.2144,250.3762,95.6974,264.4154,9.9349e-05,1.294e-05,0.0,0 STARLINK-3370,1 51127U 22005Z   23052.84747995  .00001294  00000-0  99349-4 0  9994,2 51127  53.2144 250.3762 0001196  95.6974 264.4154 15.08846921 62007,6917.859,95.437,540.552,538.897,0.0
51127.0,STARLINK-3370,PAYLOAD,2023-02-21 21:55:45,15.08848651,0.0001181,53.2143,250.0786,93.9245,266.1882,0.00011789,1.589e-05,0.0,0 STARLINK-3370,1 51127U 22005Z   23052.91371904  .00001589  00000-0  11789-3 0  9993,2 51127  53.2143 250.0786 0001181  93.9245 266.1882 15.08848651 60899,6917.854,95.437,540.536,538.902,0.0
51127.0,STARLINK-3370,PAYLOAD,2023-02-22 13:49:37,15.08833365,0.0001066,53.2144,247.1047,94.0011,266.1102,0.00010215,1.338e-05,0.0,0 STARLINK-3370,1 51127U 22005Z   23053.57612935  .00001338  00000-0  10215-3 0  9993,2 51127  53.2144 247.1047 0001066  94.0011 266.1102 15.08833365 60994,6917.901,95.438,540.503,539.028,0.0
51127.0,STARLINK-3370,PAYLOAD,2023-02-22 21:46:33,15.08836771,9.99e-05,53.2138,245.6176,91.3054,268.8053,6.9876e-05,8.24e-06,0.0,0 STARLINK-3370,1 51127U 22005Z   23053.90732861  .00000824  00000-0  69876-4 0  9998,2 51127  53.2138 245.6176 0000999  91.3054 268.8053 15.08836771 61049,6917.89,95.438,540.446,539.064,0.0
51127.0,STARLINK-3370,PAYLOAD,2023-02-23 13:40:24,15.08840359,0.0001182,53.2139,242.6432,92.4194,267.6933,1.2255e-05,-9.3e-07,0.0,0 STARLINK-3370,1 51127U 22005Z   23054.56972934 -.00000093  00000-0  12255-4 0  9996,2 51127  53.2139 242.6432 0001182  92.4194 267.6933 15.08840359 61146,6917.879,95.438,540.562,538.927,0.0
51127.0,STARLINK-3370,PAYLOAD,2023-02-23 21:37:19,15.08847047,0.0001207,53.2144,241.1565,93.5543,266.5587,6.9149e-05,8.13e-06,0.0,0 STARLINK-3370,1 51127U 22005Z   23054.90092417  .00000813  00000-0  69149-4 0  9996,2 51127  53.2144 241.1565 0001207  93.5543 266.5587 15.08847047 62315,6917.859,95.437,540.559,538.889,0.0
